1 43574U 18061F 26162.23151014 .00000017 00000+0 -89812-6 0 9995 
2 43574 86.3969 59.2970 0002102 87.8114 272.3322 14.34217582412557 
1 43575U 18061G 26162.21247408 .00000171 00000+0 53850-4 0 9998 
2 43575 86.3964 59.2205 0002290 83.4347 276.7109 14.34216272412525 
1 43576U 18061H 26162.18711078 .00000149 00000+0 46186-4 0 9993 
2 43576 86.3963 59.2381 0002115 79.7265 280.4170 14.34216611412519 
1 43577U 18061J 26162.23785248 .00000071 00000+0 18383-4 0 9992 
2 43577 86.3967 59.2573 0002088 88.7305 271.4130 14.34217604412565 
1 43578U 18061K 26162.20613970 .00000109 00000+0 31746-4 0 9992 
2 43578 86.3964 59.2076 0002319 84.5804 275.5657 14.34217120412524 
1 43922U 19002A 26162.06609816 .00000015 00000+0 -16539-5 0 9990 
2 43922 86.3968 356.1571 0002136 88.9429 271.2011 14.34217783388117 
1 43923U 19002B 26162.24578708 .00000648 00000+0 98840-4 0 9991 
2 43923 86.6092 356.0264 0002235 91.5869 268.5604 14.72258953398377 
1 43924U 19002C 26161.98998819 .00000040 00000+0 72999-5 0 9995 
2 43924 86.3974 356.2661 0002183 89.0976 271.0470 14.34217723388085 
1 43925U 19002D 26162.25637619 .00000008 00000+0 -43309-5 0 9993 
2 43925 86.3965 356.0436 0002124 86.5959 273.5480 14.34217115388108 
1 43926U 19002E 26162.13133374 .00000117 00000+0 31574-4 0 9990 
2 43926 86.4231 27.7254 0002074 70.8841 289.2582 14.38605924389354 
1 43927U 19002F 26162.25003255 .00000168 00000+0 52781-4 0 9997 
2 43927 86.3971 356.0545 0002267 89.7215 270.4241 14.34216774388118 
1 43928U 19002G 26162.10681199 .00000269 00000+0 73532-4 0 9990 
2 43928 86.4508 293.0630 0001709 202.5293 157.5834 14.43609386398100 
1 43929U 19002H 26162.09146732 -.00000256 00000+0 -98405-4 0 9992 
2 43929 86.3975 356.4260 0001915 85.9632 274.1783 14.34217558388081 
1 43930U 19002J 26162.25196972 .00000645 00000+0 98383-4 0 9998 
2 43930 86.6091 356.0261 0002363 88.1720 271.9768 14.72259366398380 
1 43931U 19002K 26162.08512588 .00000054 00000+0 12114-4 0 9997 
2 43931 86.3971 356.1455 0001849 87.0532 273.0876 14.34217873388082 
1 56726U 23068S 26162.21346045 .00000261 00000+0 71496-4 0 9996 
2 56726 86.4503 59.2877 0002322 89.7302 270.4165 14.43311417161574 
1 56727U 23068T 26161.96801033 .00000881 00000+0 11242-3 0 9991 
2 56727 86.1959 331.7460 0002414 87.4984 272.6513 14.80218319165445 
1 56728U 23068U 26162.23961810 .00000662 00000+0 10105-3 0 9997 
2 56728 86.6098 356.1782 0002549 84.9771 275.1737 14.72255447165145 
1 56729U 23068V 26162.15994741 .00000804 00000+0 10242-3 0 9998 
2 56729 86.6543 27.8793 0002681 87.6458 272.5071 14.80223080165479 
1 56730U 23068W 26162.15456348 .00000953 00000+0 12193-3 0 9998 
2 56730 86.6782 36.8433 0002405 87.9824 272.1673 14.80235035165478 
