OBJECT_NAME,OBJECT_ID,EPOCH,MEAN_MOTION,ECCENTRICITY,INCLINATION,RA_OF_ASC_NODE,ARG_OF_PERICENTER,MEAN_ANOMALY,EPHEMERIS_TYPE,CLASSIFICATION_TYPE,NORAD_CAT_ID,ELEMENT_SET_NO,REV_AT_EPOCH,BSTAR,MEAN_MOTION_DOT,MEAN_MOTION_DDOT
IRIDIUM 154,2018-061F,2026-06-11T05:33:22.476096,14.34217582,.00021025,86.3969,59.2970,87.8114,272.3322,0,U,43574,999,41255,-.898119E-6,.17E-6,0
IRIDIUM 163,2018-061G,2026-06-11T05:05:57.760512,14.34216272,.00022907,86.3964,59.2205,83.4347,276.7109,0,U,43575,999,41252,.5384997E-4,.171E-5,0
IRIDIUM 156,2018-061H,2026-06-11T04:29:26.371392,14.34216611,.00021153,86.3963,59.2381,79.7265,280.4170,0,U,43576,999,41251,.46185697E-4,.149E-5,0
IRIDIUM 164,2018-061J,2026-06-11T05:42:30.454272,14.34217604,.00020885,86.3967,59.2573,88.7305,271.4130,0,U,43577,999,41256,.18382817E-4,.71E-6,0
IRIDIUM 159,2018-061K,2026-06-11T04:56:50.470080,14.34217120,.00023197,86.3964,59.2076,84.5804,275.5657,0,U,43578,999,41252,.31745751E-4,.109E-5,0
IRIDIUM 180,2019-002A,2026-06-11T01:35:10.881024,14.34217783,.00021364,86.3968,356.1571,88.9429,271.2011,0,U,43922,999,38811,-.1653898E-5,.15E-6,0
IRIDIUM 176,2019-002B,2026-06-11T05:53:56.003712,14.72258953,.0002235,86.6092,356.0264,91.5869,268.5604,0,U,43923,999,39837,.98840275E-4,.648E-5,0
IRIDIUM 168,2019-002C,2026-06-10T23:45:34.979616,14.34217723,.00021839,86.3974,356.2661,89.0976,271.0470,0,U,43924,999,38808,.7299891E-5,.4E-6,0
IRIDIUM 173,2019-002D,2026-06-11T06:09:10.902816,14.34217115,.00021244,86.3965,356.0436,86.5959,273.5480,0,U,43925,999,38810,-.4330918E-5,.8E-7,0
IRIDIUM 169,2019-002E,2026-06-11T03:09:07.235136,14.38605924,.00020744,86.4231,27.7254,70.8841,289.2582,0,U,43926,999,38935,.31573847E-4,.117E-5,0
IRIDIUM 172,2019-002F,2026-06-11T06:00:02.812320,14.34216774,.00022671,86.3971,356.0545,89.7215,270.4241,0,U,43927,999,38811,.52780525E-4,.168E-5,0
IRIDIUM 175,2019-002G,2026-06-11T02:33:48.555936,14.43609386,.0001709,86.4508,293.0630,202.5293,157.5834,0,U,43928,999,39810,.73532369E-4,.269E-5,0
IRIDIUM 171,2019-002H,2026-06-11T02:11:42.776448,14.34217558,.00019159,86.3975,356.4260,85.9632,274.1783,0,U,43929,999,38808,-.98404616E-4,-.256E-5,0
IRIDIUM 170,2019-002J,2026-06-11T06:02:50.183808,14.72259366,.00023639,86.6091,356.0261,88.1720,271.9768,0,U,43930,999,39838,.98383139E-4,.645E-5,0
IRIDIUM 167,2019-002K,2026-06-11T02:02:34.876032,14.34217873,.0001849,86.3971,356.1455,87.0532,273.0876,0,U,43931,999,38808,.12113684E-4,.54E-6,0
IRIDIUM 181,2023-068S,2026-06-11T05:07:22.982880,14.43311417,.00023227,86.4503,59.2877,89.7302,270.4165,0,U,56726,999,16157,.71495948E-4,.261E-5,0
IRIDIUM 177,2023-068T,2026-06-10T23:13:56.092512,14.80218319,.00024146,86.1959,331.7460,87.4984,272.6513,0,U,56727,999,16544,.11241596E-3,.881E-5,0
IRIDIUM 174,2023-068U,2026-06-11T05:45:03.003840,14.72255447,.00025492,86.6098,356.1782,84.9771,275.1737,0,U,56728,999,16514,.10104553E-3,.662E-5,0
IRIDIUM 178,2023-068V,2026-06-11T03:50:19.456224,14.80223080,.0002681,86.6543,27.8793,87.6458,272.5071,0,U,56729,999,16547,.1024187E-3,.804E-5,0
IRIDIUM 179,2023-068W,2026-06-11T03:42:34.284672,14.80235035,.00024057,86.6782,36.8433,87.9824,272.1673,0,U,56730,999,16547,.12192997E-3,.953E-5,0
